NORAD_CAT_ID,OBJECT_NAME,OBJECT_TYPE,EPOCH,MEAN_MOTION,ECCENTRICITY,INCLINATION,RA_OF_ASC_NODE,ARG_OF_PERICENTER,MEAN_ANOMALY,BSTAR,MEAN_MOTION_DOT,MEAN_MOTION_DDOT,TLE_LINE0,TLE_LINE1,TLE_LINE2,SEMIMAJOR_AXIS,PERIOD,APOGEE,PERIGEE,DECAYED
52680.0,STARLINK-3774,PAYLOAD,2023-04-21 11:29:18,15.08825703,7.74e-05,53.2162,192.1672,110.1991,249.9085,0.00048105,7.373e-05,0.0,0 STARLINK-3774,1 52680U 22053AA  23111.47869061  .00007373  00000-0  48105-3 0  9993,2 52680  53.2162 192.1672 0000774 110.1991 249.9085 15.08825703 52159,6917.924,95.438,540.325,539.254,0.0
52680.0,STARLINK-3774,PAYLOAD,2023-04-21 14:40:05,15.08835057,0.0001283,53.2159,191.5723,107.2192,252.894,0.00091732,0.00014339,0.0,0 STARLINK-3774,1 52680U 22053AA  23111.61117083  .00014339  00000-0  91732-3 0  9993,2 52680  53.2159 191.5723 0001283 107.2192 252.8940 15.08835057 51763,6917.895,95.438,540.648,538.873,0.0
52680.0,STARLINK-3774,PAYLOAD,2023-04-21 22:37:00,15.08833444,2.83e-05,53.2155,190.088,179.0114,181.0879,0.00043962,6.715e-05,0.0,0 STARLINK-3774,1 52680U 22053AA  23111.94236839  .00006715  00000-0  43962-3 0  9991,2 52680  53.2155 190.0880 0000283 179.0114 181.0879 15.08833444 51815,6917.9,95.438,539.961,539.57,0.0
52680.0,STARLINK-3774,PAYLOAD,2023-04-22 16:06:14,15.0886666,9.78e-05,53.2147,186.8159,82.5272,277.5831,0.0013649,0.00021517,0.0,0 STARLINK-3774,1 52680U 22053AA  23112.67100582  .00021517  00000-0  13649-2 0  9992,2 52680  53.2147 186.8159 0000978  82.5272 277.5831 15.08866660 51929,6917.799,95.436,540.34,538.987,0.0
52680.0,STARLINK-3774,PAYLOAD,2023-04-23 04:49:20,15.08846105,0.0001186,53.2141,184.4362,102.1232,257.9893,0.00042319,6.455e-05,0.0,0 STARLINK-3774,1 52680U 22053AA  23113.20093020  .00006455  00000-0  42319-3 0  9991,2 52680  53.2141 184.4362 0001186 102.1232 257.9893 15.08846105 52002,6917.862,95.437,540.547,538.906,0.0
52680.0,STARLINK-3774,PAYLOAD,2023-04-23 11:10:53,15.0884542,0.0001062,53.2144,183.2472,94.6857,265.4257,0.0015848,0.00025028,0.0,0 STARLINK-3774,1 52680U 22053AA  23113.46589245  .00025028  00000-0  15848-2 0  9991,2 52680  53.2144 183.2472 0001062  94.6857 265.4257 15.08845420 52451,6917.864,95.437,540.463,538.994,0.0
52680.0,STARLINK-3774,PAYLOAD,2023-04-24 04:40:07,15.08901861,0.0001278,53.2147,179.9771,87.4621,272.6517,0.0048557,0.00077978,0.0,0 STARLINK-3774,1 52680U 22053AA  23114.19453023  .00077978  00000-0  48557-2 0  9990,2 52680  53.2147 179.9771 0001278  87.4621 272.6517 15.08901861 52569,6917.691,95.434,540.44,538.672,0.0
52680.0,STARLINK-3774,PAYLOAD,2023-04-25 12:27:50,15.08799206,0.0001321,53.2163,174.0298,95.6405,264.4738,-0.00030391,-5.116e-05,0.0,0 STARLINK-3774,1 52680U 22053AA  23115.51933697 -.00005116  00000-0 -30391-3 0  9992,2 52680  53.2163 174.0298 0001321  95.6405 264.4738 15.08799206 52356,6918.005,95.44,540.784,538.956,0.0
52680.0,STARLINK-3774,PAYLOAD,2023-04-25 14:03:14,15.08796216,0.0001427,53.2165,173.7321,102.6033,257.5119,3.2067e-05,2.22e-06,0.0,0 STARLINK-3774,1 52680U 22053AA  23115.58558024  .00000222  00000-0  32067-4 0  9990,2 52680  53.2165 173.7321 0001427 102.6033 257.5119 15.08796216 52774,6918.014,95.44,540.866,538.892,0.0
52680.0,STARLINK-3774,PAYLOAD,2023-04-26 09:07:53,15.08817961,0.0001222,53.216,170.1642,104.9004,255.2123,0.00071359,0.0001108,0.0,0 STARLINK-3774,1 52680U 22053AA  23116.38047595  .00011080  00000-0  71359-3 0  9995,2 52680  53.2160 170.1642 0001222 104.9004 255.2123 15.08817961 52896,6917.948,95.439,540.658,538.967,0.0
52680.0,STARLINK-3774,PAYLOAD,2023-04-26 13:54:02,15.08822987,0.0001192,53.2158,169.2724,105.2974,254.815,0.00071739,0.00011142,0.0,0 STARLINK-3774,1 52680U 22053AA  23116.57919824  .00011142  00000-0  71739-3 0  9990,2 52680  53.2158 169.2724 0001192 105.2974 254.8150 15.08822987 52922,6917.932,95.439,540.622,538.973,0.0
52680.0,STARLINK-3774,PAYLOAD,2023-04-27 10:34:03,15.08853385,0.0001124,53.2153,165.4062,105.8834,254.2282,0.00096877,0.00015169,0.0,0 STARLINK-3774,1 52680U 22053AA  23117.44031665  .00015169  00000-0  96877-3 0  9998,2 52680  53.2153 165.4062 0001124 105.8834 254.2282 15.08853385 52641,6917.839,95.437,540.482,538.927,0.0
52680.0,STARLINK-3774,PAYLOAD,2023-04-28 12:00:11,15.08870548,0.000101,53.215,160.6489,107.8616,252.2486,0.00048111,7.384e-05,0.0,0 STARLINK-3774,1 52680U 22053AA  23118.50013877  .00007384  00000-0  48111-3 0  9999,2 52680  53.2150 160.6489 0001010 107.8616 252.2486 15.08870548 52804,6917.787,95.436,540.351,538.953,0.0
52680.0,STARLINK-3774,PAYLOAD,2023-04-28 19:57:07,15.08860093,9.8e-06,53.2166,159.1677,173.5757,186.5237,0.00012847,1.759e-05,0.0,0 STARLINK-3774,1 52680U 22053AA  23118.83133293  .00001759  00000-0  12847-3 0  9997,2 52680  53.2166 159.1677 0000098 173.5757 186.5237 15.08860093 52856,6917.819,95.436,539.752,539.616,0.0
52680.0,STARLINK-3774,PAYLOAD,2023-04-29 10:15:35,15.08850822,0.000107,53.2149,156.4862,98.0134,262.0979,7.0272e-05,8.31e-06,0.0,0 STARLINK-3774,1 52680U 22053AA  23119.42749707  .00000831  00000-0  70272-4 0  9993,2 52680  53.2149 156.4862 0001070  98.0134 262.0979 15.08850822 52946,6917.847,95.437,540.453,538.972,0.0
52680.0,STARLINK-3774,PAYLOAD,2023-04-30 11:41:46,15.08846096,0.0001153,53.2151,151.7284,93.3275,266.7849,0.00021555,3.145e-05,0.0,0 STARLINK-3774,1 52680U 22053AA  23120.48733852  .00003145  00000-0  21555-3 0  9995,2 52680  53.2151 151.7284 0001153  93.3275 266.7849 15.08846096 53105,6917.862,95.437,540.524,538.929,0.0
52680.0,STARLINK-3774,PAYLOAD,2023-05-01 08:21:46,15.08843062,0.000126,53.2161,147.8611,95.8245,264.2891,0.00013473,1.857e-05,0.0,0 STARLINK-3774,1 52680U 22053AA  23121.34845960  .00001857  00000-0  13473-3 0  9993,2 52680  53.2161 147.8611 0001260  95.8245 264.2891 15.08843062 53233,6917.871,95.437,540.608,538.864,0.0
52680.0,STARLINK-3774,PAYLOAD,2023-05-02 11:23:19,15.08846648,0.0001216,53.2158,142.8054,98.0531,262.0599,0.00012443,1.693e-05,0.0,0 STARLINK-3774,1 52680U 22053AA  23122.47453492  .00001693  00000-0  12443-3 0  9997,2 52680  53.2158 142.8054 0001216  98.0531 262.0599 15.08846648 53402,6917.86,95.437,540.566,538.884,0.0
52680.0,STARLINK-3774,PAYLOAD,2023-05-03 04:52:34,15.08837425,0.0001296,53.2162,139.5337,111.6266,248.4865,3.4732e-05,2.65e-06,0.0,0 STARLINK-3774,1 52680U 22053AA  23123.20318075  .00000265  00000-0  34732-4 0  9996,2 52680  53.2162 139.5337 0001296 111.6266 248.4865 15.08837425 53518,6917.888,95.438,540.65,538.857,0.0
52680.0,STARLINK-3774,PAYLOAD,2023-05-03 11:14:07,15.08838354,0.0001103,53.2161,138.3461,94.5905,265.5214,2.8688e-05,1.69e-06,0.0,0 STARLINK-3774,1 52680U 22053AA  23123.46814024  .00000169  00000-0  28688-4 0  9995,2 52680  53.2161 138.3461 0001103  94.5905 265.5214 15.08838354 53967,6917.885,95.438,540.513,538.987,0.0
52680.0,STARLINK-3774,PAYLOAD,2023-05-04 09:29:31,15.08834848,0.0001093,53.2159,134.183,93.604,266.5077,-1.3921e-05,-5.09e-06,0.0,0 STARLINK-3774,1 52680U 22053AA  23124.39550600 -.00000509  00000-0 -13921-4 0  9999,2 52680  53.2159 134.1830 0001093  93.6040 266.5077 15.08834848 53698,6917.896,95.438,540.517,539.005,0.0
52680.0,STARLINK-3774,PAYLOAD,2023-05-05 09:20:18,15.08840831,0.0001032,53.2162,129.7224,93.6469,266.4642,0.00010362,1.362e-05,0.0,0 STARLINK-3774,1 52680U 22053AA  23125.38910153  .00001362  00000-0  10362-3 0  9993,2 52680  53.2162 129.7224 0001032  93.6469 266.4642 15.08840831 53840,6917.878,95.438,540.457,539.029,0.0
52680.0,STARLINK-3774,PAYLOAD,2023-05-05 17:17:14,15.08839249,0.0001042,53.2163,128.2356,92.2745,267.8366,9.2874e-05,1.191e-05,0.0,0 STARLINK-3774,1 52680U 22053AA  23125.72030330  .00001191  00000-0  92874-4 0  9990,2 52680  53.2163 128.2356 0001042  92.2745 267.8366 15.08839249 54305,6917.883,95.438,540.469,539.027,0.0
52680.0,STARLINK-3774,PAYLOAD,2023-05-06 09:11:05,15.0884201,0.0001028,53.2163,125.2617,92.5932,267.5177,0.00012217,1.657e-05,0.0,0 STARLINK-3774,1 52680U 22053AA  23126.38270373  .00001657  00000-0  12217-3 0  9995,2 52680  53.2163 125.2617 0001028  92.5932 267.5177 15.08842010 54405,6917.874,95.437,540.45,539.028,0.0
52680.0,STARLINK-3774,PAYLOAD,2023-05-06 17:08:01,15.08841389,0.0001024,53.2162,123.7748,90.8473,269.2636,9.3422e-05,1.199e-05,0.0,0 STARLINK-3774,1 52680U 22053AA  23126.71390512  .00001199  00000-0  93422-4 0  9999,2 52680  53.2162 123.7748 0001024  90.8473 269.2636 15.08841389 54046,6917.876,95.437,540.45,539.033,0.0
52680.0,STARLINK-3774,PAYLOAD,2023-05-07 05:51:06,15.08846331,0.0001041,53.216,121.3952,90.4391,269.672,7.7119e-05,9.4e-06,0.0,0 STARLINK-3774,1 52680U 22053AA  23127.24382143  .00000940  00000-0  77119-4 0  9997,2 52680  53.2160 121.3952 0001041  90.4391 269.6720 15.08846331 54533,6917.861,95.437,540.446,539.006,0.0
52680.0,STARLINK-3774,PAYLOAD,2023-05-07 16:58:48,15.0884455,0.0001013,53.2162,119.3139,89.8408,270.27,5.5081e-05,5.89e-06,0.0,0 STARLINK-3774,1 52680U 22053AA  23127.70750191  .00000589  00000-0  55081-4 0  9993,2 52680  53.2162 119.3139 0001013  89.8408 270.2700 15.08844550 54604,6917.866,95.437,540.432,539.031,0.0
52680.0,STARLINK-3774,PAYLOAD,2023-05-08 04:06:30,15.08836898,0.0001041,53.2161,117.2324,89.9193,270.1918,2.9999e-05,1.9e-06,0.0,0 STARLINK-3774,1 52680U 22053AA  23128.17118762  .00000190  00000-0  29999-4 0  9994,2 52680  53.2161 117.2324 0001041  89.9193 270.1918 15.08836898 54267,6917.89,95.438,540.475,539.035,0.0
52680.0,STARLINK-3774,PAYLOAD,2023-05-08 05:41:53,15.08838268,0.0001055,53.2157,116.9353,88.4377,271.6736,2.4789e-05,1.07e-06,0.0,0 STARLINK-3774,1 52680U 22053AA  23128.23742686  .00000107  00000-0  24789-4 0  9999,2 52680  53.2157 116.9353 0001055  88.4377 271.6736 15.08838268 54686,6917.886,95.438,540.481,539.021,0.0
52680.0,STARLINK-3774,PAYLOAD,2023-05-09 05:32:40,15.08843081,0.0001079,53.2159,112.4752,85.8742,274.2374,4.9943e-05,5.07e-06,0.0,0 STARLINK-3774,1 52680U 22053AA  23129.23102316  .00000507  00000-0  49943-4 0  9993,2 52680  53.2159 112.4752 0001079  85.8742 274.2374 15.08843081 54423,6917.871,95.437,540.482,538.99,0.0
